GOES 1 (SMS-C) [-]      
1 08366U 75100A   23102.59085272 -.00000105  00000+0  00000+0 0  9997
2 08366   7.5464 291.9686 0000516 319.0878  58.7687  1.00226873173427
GOES 2 [-]              
1 10061U 77048A   23102.37179271  .00000022  00000+0  00000+0 0  9991
2 10061   9.1687 303.9817 0012314  36.0038 196.3091  0.99399054 34726
GOES 3 [-]              
1 10953U 78062A   23101.77079858  .00000003  00000+0  00000+0 0  9990
2 10953   9.5258 308.7047 0002688 127.4018  66.7189  0.99361893116985
GOES 4 [-]              
1 11964U 80074A   23102.47549446 -.00000244  00000+0  00000+0 0  9990
2 11964  10.5069 312.5320 0033859  81.7783 287.9783  0.99231541115917
GOES 5 [-]              
1 12472U 81049A   23102.44702135 -.00000253  00000+0  00000+0 0  9991
2 12472  11.4385 324.1425 0001056 109.3340 210.3160  1.00226929111190
GOES 6 [-]              
1 14050U 83041A   23102.22295509 -.00000178  00000+0  00000+0 0  9993
2 14050  12.0463 329.5224 0003743 134.9739  83.9271  1.00223477204369
GOES 7 [-]              
1 17561U 87022A   23102.37798291  .00000089  00000+0  00000+0 0  9998
2 17561  13.9841 346.1465 0005685  63.8466 131.3315  0.99901307115354
GOES 8 [-]              
1 23051U 94022A   23102.11856755 -.00000248  00000+0  00000+0 0  9997
2 23051  13.4331  22.0863 0007456  32.8380 159.9427  0.98907367112634
GOES 9 [-]              
1 23581U 95025A   23102.52310799 -.00000204  00000+0  00000+0 0  9999
2 23581  12.9309  22.5285 0005984  91.0090  37.7638  0.98800617101278
GOES 10 [-]             
1 24786U 97019A   23102.60153025 -.00000307  00000+0  00000+0 0  9992
2 24786  11.7624  28.8228 0025452 208.1731 323.9984  0.99126548 94555
GOES 11 [-]             
1 26352U 00022A   23100.81982872 -.00000129  00000+0  00000+0 0  9994
2 26352   9.3175  56.9089 0001625 291.4182  76.1656  0.99041825 40950
GOES 12 [-]             
1 26871U 01031A   23101.75397576 -.00000193  00000+0  00000+0 0  9997
2 26871  10.0573  46.1853 0006390 336.1392  29.8850  0.99137337 79240
EWS-G1 (GOES 13) [+]    
1 29155U 06018A   23102.48729851  .00000031  00000+0  00000+0 0  9991
2 29155   1.3641  92.0009 0001493 169.9300 175.7039  1.00277742 31729
GOES 14 [B]             
1 35491U 09033A   23102.58613446 -.00000071  00000+0  00000+0 0  9999
2 35491   0.1822 113.5473 0005908 296.7120 253.1310  1.00269103 50462
GOES 15 [B]             
1 36411U 10008A   23102.52827385  .00000086  00000+0  00000+0 0  9994
2 36411   0.1987  94.6633 0001635 255.7950 267.9706  1.00132540 48006
GOES 16 [+]             
1 41866U 16071A   23102.46768788 -.00000251  00000+0  00000+0 0  9999
2 41866   0.0540 287.7027 0000661 131.9518 233.9139  1.00270385 23450
GOES 17 [+]             
1 43226U 18022A   23102.58948848 -.00000094  00000+0  00000+0 0  9994
2 43226   0.0052  76.0294 0001951 340.9058 251.0724  1.00271794 18774
GOES 18 [+]             
1 51850U 22021A   23102.55083483  .00000093  00000+0  00000+0 0  9990
2 51850   0.0217  37.2150 0000475 339.3902 245.1769  1.00270983  4136
